     2              NAVIGATION DATA                         RINEX VERSION / TYPE
CCRINEXN V1.6.0 UX  CDDIS               08-SEP-23 23:31     PGM / RUN BY / DATE 
IGS BROADCAST EPHEMERIS FILE                                COMMENT             
    0.1583D-07  0.2235D-07 -0.1192D-06 -0.1192D-06          ION ALPHA           
    0.1126D+06  0.8192D+05 -0.1966D+06 -0.6554D+05          ION BETA            
   -0.186264514923D-08 0.000000000000D+00   503808     2278 DELTA-UTC: A0,A1,T,W
    18                                                      LEAP SECONDS        
                                                            END OF HEADER       
26 23  9  7 10  0  0.0 0.229647383094D-03-0.170530256582D-11 0.000000000000D+00
    0.610000000000D+02 0.438125000000D+02 0.505913930489D-08-0.880315041592D+00
    0.237673521042D-05 0.814156723209D-02 0.741146504879D-05 0.515374770165D+04
    0.381600000000D+06 0.223517417908D-06-0.166915367378D+01 0.242143869400D-07
    0.932750608875D+00 0.217718750000D+03 0.468579735461D+00-0.829034532616D-08
   -0.125005206969D-09 0.100000000000D+01 0.227800000000D+04 0.000000000000D+00
    0.200000000000D+01 0.000000000000D+00 0.698491930962D-08 0.610000000000D+02
    0.380238000000D+06 0.400000000000D+01 0.000000000000D+00 0.000000000000D+00
28 23  9  7 10  0  0.0-0.659143552184D-05-0.477484718431D-11 0.000000000000D+00
    0.196000000000D+03 0.518750000000D+01 0.444554231754D-08-0.674187041774D+00
    0.370666384697D-06 0.662905746140D-03 0.765174627304D-05 0.515373706627D+04
    0.381600000000D+06-0.167638063431D-07-0.267930389158D+01 0.167638063431D-07
    0.961747270508D+00 0.230843750000D+03 0.158909063232D+01-0.790925802377D-08
   -0.346443002170D-10 0.100000000000D+01 0.227800000000D+04 0.000000000000D+00
    0.200000000000D+01 0.000000000000D+00-0.977888703346D-08 0.196000000000D+03
    0.374418000000D+06 0.400000000000D+01 0.000000000000D+00 0.000000000000D+00
29 23  9  7 10  0  0.0-0.609004870057D-03-0.454747350886D-12 0.000000000000D+00
    0.184000000000D+03 0.626562500000D+02 0.429767901558D-08-0.279598432847D+01
    0.342912971973D-05 0.261504482478D-02 0.553019344807D-05 0.515371963501D+04
    0.381600000000D+06-0.540167093277D-07-0.474154165784D+00 0.298023223877D-07
    0.975213880544D+00 0.281937500000D+03 0.255356569792D+01-0.794747390133D-08
    0.100718481043D-09 0.100000000000D+01 0.227800000000D+04 0.000000000000D+00
    0.280000000000D+01 0.000000000000D+00-0.977888703346D-08 0.184000000000D+03
    0.380988000000D+06 0.400000000000D+01 0.000000000000D+00 0.000000000000D+00
31 23  9  7 10  0  0.0-0.223025679588D-03-0.568434188608D-12 0.000000000000D+00
    0.590000000000D+02 0.846875000000D+01 0.467912347570D-08-0.137600395106D+00
    0.646337866783D-06 0.104294624180D-01 0.752881169319D-05 0.515361517143D+04
    0.381600000000D+06 0.745058059692D-07-0.262276792438D+01 0.130385160446D-06
    0.954631471661D+00 0.230187500000D+03 0.578819922745D+00-0.817319758934D-08
   -0.464305054455D-10 0.100000000000D+01 0.227800000000D+04 0.000000000000D+00
    0.200000000000D+01 0.000000000000D+00-0.130385160446D-07 0.590000000000D+02
    0.375612000000D+06 0.400000000000D+01 0.000000000000D+00 0.000000000000D+00
32 23  9  7 10  0  0.0-0.553938560188D-03-0.625277607469D-11 0.000000000000D+00
    0.770000000000D+02-0.252187500000D+02 0.441232664826D-08-0.206731428364D+01
   -0.122003257275D-05 0.695802690461D-02 0.832229852676D-05 0.515356772232D+04
    0.381600000000D+06 0.316649675369D-07 0.258204696473D+01-0.143423676491D-06
    0.960467297650D+00 0.221937500000D+03-0.222010120500D+01-0.774460830831D-08
    0.189650756858D-09 0.100000000000D+01 0.227800000000D+04 0.000000000000D+00
    0.200000000000D+01 0.000000000000D+00 0.465661287308D-09 0.770000000000D+02
    0.380868000000D+06 0.400000000000D+01 0.000000000000D+00 0.000000000000D+00
 7 23  9  7 11 59 44.0 0.739591196179D-04-0.105728759081D-10 0.000000000000D+00
    0.800000000000D+01 0.337500000000D+01 0.477912764128D-08 0.175968403454D+01
   -0.689178705216D-07 0.175577269401D-01 0.802241265774D-05 0.515372012901D+04
    0.388784000000D+06-0.340864062309D-06-0.264324170135D+01-0.229105353355D-06
    0.950582028106D+00 0.223468750000D+03-0.217377421746D+01-0.805819279893D-08
   -0.173221501085D-09 0.100000000000D+01 0.227800000000D+04 0.000000000000D+00
    0.200000000000D+01 0.000000000000D+00-0.111758708954D-07 0.800000000000D+01
    0.388098000000D+06 0.400000000000D+01 0.000000000000D+00 0.000000000000D+00
16 23  9  7 11 59 44.0-0.457618385553D-03 0.534328137292D-11 0.000000000000D+00
    0.000000000000D+00 0.520625000000D+02 0.433910931275D-08-0.694847487096D+00
    0.302307307720D-05 0.133655571844D-01 0.764243304729D-05 0.515365564537D+04
    0.388784000000D+06 0.128522515297D-06-0.150986293757D+01 0.240281224251D-06
    0.963813286806D+00 0.233000000000D+03 0.793703106909D+00-0.808462247126D-08
   -0.124290891500D-09 0.100000000000D+01 0.227800000000D+04 0.000000000000D+00
    0.200000000000D+01 0.000000000000D+00-0.102445483208D-07 0.000000000000D+00
    0.386298000000D+06 0.400000000000D+01 0.000000000000D+00 0.000000000000D+00
29 23  9  7 11 59 44.0-0.609005801380D-03-0.454747350886D-12 0.000000000000D+00
    0.000000000000D+00 0.680000000000D+02 0.423124767702D-08-0.174800576432D+01
    0.347755849361D-05 0.261513399892D-02 0.585429370403D-05 0.515372012711D+04
    0.388784000000D+06-0.633299350738D-07-0.474211519488D+00-0.372529029846D-07
    0.975214462785D+00 0.280906250000D+03 0.255340486471D+01-0.799711882639D-08
    0.121433629627D-09 0.100000000000D+01 0.227800000000D+04 0.000000000000D+00
    0.200000000000D+01 0.000000000000D+00-0.977888703346D-08 0.000000000000D+00
    0.385326000000D+06 0.400000000000D+01 0.000000000000D+00 0.000000000000D+00
 1 23  9  7 12  0  0.0 0.166112091392D-03-0.102318153950D-11 0.000000000000D+00
    0.590000000000D+02-0.290937500000D+02 0.391480592452D-08 0.245279101924D+01
   -0.168010592461D-05 0.128754854668D-01 0.435858964920D-05 0.515363704109D+04
    0.388800000000D+06-0.204890966415D-07 0.515423258888D+00-0.221654772759D-06
    0.990456682325D+00 0.310281250000D+03 0.992708546273D+00-0.765781897890D-08
    0.271439877989D-10 0.100000000000D+01 0.227800000000D+04 0.000000000000D+00
    0.280000000000D+01 0.630000000000D+02 0.512227416039D-08 0.590000000000D+02
    0.381618000000D+06 0.400000000000D+01 0.000000000000D+00 0.000000000000D+00
 2 23  9  7 12  0  0.0-0.556747429073D-03 0.432009983342D-11 0.000000000000D+00
    0.820000000000D+02-0.124687500000D+02 0.458447667614D-08-0.113616150169D+01
   -0.473111867905D-06 0.160125145922D-01 0.460073351860D-05 0.515353487968D+04
    0.388800000000D+06-0.335276126862D-06 0.414597442448D+00 0.614672899246D-07
    0.967777786024D+00 0.300625000000D+03-0.134549622964D+01-0.837070581635D-08
    0.103218585183D-09 0.100000000000D+01 0.227800000000D+04 0.000000000000D+00
    0.200000000000D+01 0.000000000000D+00-0.176951289177D-07 0.820000000000D+02
    0.381618000000D+06 0.400000000000D+01 0.000000000000D+00 0.000000000000D+00
 3 23  9  7 12  0  0.0-0.148034188896D-03 0.201225702767D-10 0.000000000000D+00
    0.750000000000D+02-0.659687500000D+02 0.412267172583D-08 0.125174132241D+01
   -0.351481139660D-05 0.513032020535D-02 0.752136111260D-05 0.515360560417D+04
    0.388800000000D+06-0.117346644402D-06 0.154518683107D+01 0.279396772385D-07
    0.980204733827D+00 0.245718750000D+03 0.110460210163D+01-0.785889878325D-08
    0.189293599124D-10 0.100000000000D+01 0.227800000000D+04 0.000000000000D+00
    0.200000000000D+01 0.000000000000D+00 0.186264514923D-08 0.750000000000D+02
    0.381618000000D+06 0.400000000000D+01 0.000000000000D+00 0.000000000000D+00
 4 23  9  7 12  0  0.0 0.148901715875D-03 0.112549969344D-10 0.000000000000D+00
    0.290000000000D+02-0.232812500000D+02 0.447125767440D-08-0.201621582641D+01
   -0.123679637909D-05 0.252766173799D-02 0.805221498013D-05 0.515362344742D+04
    0.388800000000D+06-0.372529029846D-07 0.262588540280D+01 0.745058059692D-08
    0.963556494944D+00 0.225156250000D+03-0.303755804923D+01-0.785318425950D-08
    0.166792661870D-09 0.100000000000D+01 0.227800000000D+04 0.000000000000D+00
    0.200000000000D+01 0.000000000000D+00-0.419095158577D-08 0.285000000000D+03
    0.383063000000D+06 0.400000000000D+01 0.000000000000D+00 0.000000000000D+00
 5 23  9  7 12  0  0.0-0.141791533679D-03-0.147792889038D-11 0.000000000000D+00
    0.560000000000D+02-0.819687500000D+02 0.432982321166D-08-0.131199077841D+01
   -0.418163836002D-05 0.606341648381D-02 0.689737498760D-05 0.515372856140D+04
    0.388800000000D+06 0.428408384323D-07 0.149725588114D+01 0.149011611938D-06
    0.967226197151D+00 0.249500000000D+03 0.122076779909D+01-0.794318800852D-08
    0.135719938994D-10 0.100000000000D+01 0.227800000000D+04 0.000000000000D+00
    0.200000000000D+01 0.000000000000D+00-0.111758708954D-07 0.560000000000D+02
    0.386262000000D+06 0.400000000000D+01 0.000000000000D+00 0.000000000000D+00
 6 23  9  7 12  0  0.0 0.554399564862D-03-0.636646291241D-11 0.000000000000D+00
    0.350000000000D+02-0.350937500000D+02 0.408016995546D-08 0.267094581196D+01
   -0.166147947311D-05 0.274341448676D-02 0.402145087719D-05 0.515373808098D+04
    0.388800000000D+06 0.782310962677D-07 0.507088566937D+00 0.111758708954D-06
    0.989633122352D+00 0.316000000000D+03-0.802357611769D+00-0.798926135623D-08
   -0.321441960777D-11 0.100000000000D+01 0.227800000000D+04 0.000000000000D+00
    0.200000000000D+01 0.000000000000D+00 0.372529029846D-08 0.350000000000D+02
    0.381618000000D+06 0.400000000000D+01 0.000000000000D+00 0.000000000000D+00
